NORAD_CAT_ID,OBJECT_NAME,OBJECT_TYPE,EPOCH,MEAN_MOTION,ECCENTRICITY,INCLINATION,RA_OF_ASC_NODE,ARG_OF_PERICENTER,MEAN_ANOMALY,BSTAR,MEAN_MOTION_DOT,MEAN_MOTION_DDOT,TLE_LINE0,TLE_LINE1,TLE_LINE2,SEMIMAJOR_AXIS,PERIOD,APOGEE,PERIGEE,DECAYED
52859.0,STARLINK-4196,PAYLOAD,2023-06-10 00:11:19,15.08836357,9.5e-05,53.2146,209.8238,82.914,277.196,4.9573e-05,5.01e-06,0.0,0 STARLINK-4196,1 52859U 22062AF  23161.00786097  .00000501  00000-0  49573-4 0  9999,2 52859  53.2146 209.8238 0000950  82.9140 277.1960 15.08836357 54896,6917.892,95.438,540.414,539.099,0.0
52859.0,STARLINK-4196,PAYLOAD,2023-06-10 12:54:24,15.08839609,9.03e-05,53.2149,207.4437,90.9468,269.1627,4.0142e-05,3.51e-06,0.0,0 STARLINK-4196,1 52859U 22062AF  23161.53777947  .00000351  00000-0  40142-4 0  9997,2 52859  53.2149 207.4437 0000903  90.9468 269.1627 15.08839609 54483,6917.882,95.438,540.371,539.122,0.0
52859.0,STARLINK-4196,PAYLOAD,2023-06-11 03:12:52,15.08839056,9.46e-05,53.2143,204.7673,90.465,269.6451,-6.4067e-06,-3.9e-06,0.0,0 STARLINK-4196,1 52859U 22062AF  23162.13394134 -.00000390  00000-0 -64067-5 0  9995,2 52859  53.2143 204.7673 0000946  90.4650 269.6451 15.08839056 55065,6917.883,95.438,540.403,539.094,0.0
52859.0,STARLINK-4196,PAYLOAD,2023-06-11 09:34:24,15.08841581,8.96e-05,53.2147,203.5783,87.5341,272.5754,2.155e-05,5.5e-07,0.0,0 STARLINK-4196,1 52859U 22062AF  23162.39889894  .00000055  00000-0  21550-4 0  9990,2 52859  53.2147 203.5783 0000896  87.5341 272.5754 15.08841581 54611,6917.876,95.437,540.36,539.121,0.0
52859.0,STARLINK-4196,PAYLOAD,2023-06-12 09:25:11,15.08840282,8.41e-05,53.2146,199.1184,83.501,276.6078,7.8251e-05,9.58e-06,0.0,0 STARLINK-4196,1 52859U 22062AF  23163.39249813  .00000958  00000-0  78251-4 0  9994,2 52859  53.2146 199.1184 0000841  83.5010 276.6078 15.08840282 55256,6917.88,95.438,540.326,539.163,0.0
52859.0,STARLINK-4196,PAYLOAD,2023-06-12 18:57:31,15.08836775,8.28e-05,53.2145,197.3344,80.1131,279.9955,1.4382e-05,-5.9e-07,0.0,0 STARLINK-4196,1 52859U 22062AF  23163.78994278 -.00000059  00000-0  14382-4 0  9997,2 52859  53.2145 197.3344 0000828  80.1131 279.9955 15.08836775 54829,6917.89,95.438,540.328,539.182,0.0
52859.0,STARLINK-4196,PAYLOAD,2023-06-13 18:48:18,15.08833998,8.82e-05,53.2143,192.8748,84.4316,275.6777,4.4759e-06,-2.16e-06,0.0,0 STARLINK-4196,1 52859U 22062AF  23164.78354806 -.00000216  00000-0  44759-5 0  9992,2 52859  53.2143 192.8748 0000882  84.4316 275.6777 15.08833998 54972,6917.899,95.438,540.374,539.154,0.0
52859.0,STARLINK-4196,PAYLOAD,2023-06-14 10:42:09,15.08841367,8.95e-05,53.2142,189.9011,85.3789,274.7306,5.1494e-05,5.32e-06,0.0,0 STARLINK-4196,1 52859U 22062AF  23165.44594295  .00000532  00000-0  51494-4 0  9997,2 52859  53.2142 189.9011 0000895  85.3789 274.7306 15.08841367 55562,6917.876,95.437,540.36,539.122,0.0
52859.0,STARLINK-4196,PAYLOAD,2023-06-14 18:39:05,15.08836759,8.82e-05,53.2146,188.414,84.0572,276.0521,3.7513e-05,3.09e-06,0.0,0 STARLINK-4196,1 52859U 22062AF  23165.77714646  .00000309  00000-0  37513-4 0  9995,2 52859  53.2146 188.4140 0000882  84.0572 276.0521 15.08836759 55120,6917.89,95.438,540.365,539.145,0.0
52859.0,STARLINK-4196,PAYLOAD,2023-06-15 01:00:38,15.0883379,8.64e-05,53.2143,187.2236,83.554,276.555,7.1602e-05,8.52e-06,0.0,0 STARLINK-4196,1 52859U 22062AF  23166.04210785  .00000852  00000-0  71602-4 0  9991,2 52859  53.2143 187.2236 0000864  83.5540 276.5550 15.08833790 55656,6917.899,95.438,540.362,539.167,0.0
52859.0,STARLINK-4196,PAYLOAD,2023-06-15 08:57:33,15.08835008,9.06e-05,53.2149,185.7364,82.697,277.4125,4.7111e-05,4.62e-06,0.0,0 STARLINK-4196,1 52859U 22062AF  23166.37330943  .00000462  00000-0  47111-4 0  9991,2 52859  53.2149 185.7364 0000906  82.6970 277.4125 15.08835008 55215,6917.896,95.438,540.387,539.134,0.0
52859.0,STARLINK-4196,PAYLOAD,2023-06-16 07:12:57,15.08843413,8.98e-05,53.2144,181.5731,82.805,277.3044,6.3431e-05,7.22e-06,0.0,0 STARLINK-4196,1 52859U 22062AF  23167.30066411  .00000722  00000-0  63431-4 0  9993,2 52859  53.2144 181.5731 0000898  82.8050 277.3044 15.08843413 55840,6917.87,95.437,540.356,539.114,0.0
52859.0,STARLINK-4196,PAYLOAD,2023-06-16 18:20:39,15.08842923,9.11e-05,53.2147,179.4917,82.1874,277.9222,7.401e-05,8.9e-06,0.0,0 STARLINK-4196,1 52859U 22062AF  23167.76434297  .00000890  00000-0  74010-4 0  9995,2 52859  53.2147 179.4917 0000911  82.1874 277.9222 15.08842923 55421,6917.871,95.437,540.367,539.106,0.0
52859.0,STARLINK-4196,PAYLOAD,2023-06-17 07:03:44,15.08841157,9.34e-05,53.2149,177.1128,83.0241,277.0857,7.1962e-05,8.58e-06,0.0,0 STARLINK-4196,1 52859U 22062AF  23168.29426378  .00000858  00000-0  71962-4 0  9992,2 52859  53.2149 177.1128 0000934  83.0241 277.0857 15.08841157 55507,6917.877,95.437,540.388,539.096,0.0
52859.0,STARLINK-4196,PAYLOAD,2023-06-17 18:11:26,15.08839037,9.23e-05,53.2148,175.031,84.8929,275.2168,2.601e-05,1.26e-06,0.0,0 STARLINK-4196,1 52859U 22062AF  23168.75794601  .00000126  00000-0  26010-4 0  9992,2 52859  53.2148 175.0310 0000923  84.8929 275.2168 15.08839037 56067,6917.883,95.438,540.387,539.11,0.0
52859.0,STARLINK-4196,PAYLOAD,2023-06-18 06:54:32,15.08835174,9.74e-05,53.215,172.6522,85.3365,274.7738,-2.7822e-05,-7.3e-06,0.0,0 STARLINK-4196,1 52859U 22062AF  23169.28787101 -.00000730  00000-0 -27822-4 0  9993,2 52859  53.2150 172.6522 0000974  85.3365 274.7738 15.08835174 55653,6917.895,95.438,540.434,539.086,0.0
52859.0,STARLINK-4196,PAYLOAD,2023-06-19 09:56:05,15.08838846,0.0001029,53.2154,167.5978,84.3431,275.7679,2.9989e-05,1.9e-06,0.0,0 STARLINK-4196,1 52859U 22062AF  23170.41394859  .00000190  00000-0  29989-4 0  9998,2 52859  53.2154 167.5978 0001029  84.3431 275.7679 15.08838846 56318,6917.884,95.438,540.461,539.037,0.0
52859.0,STARLINK-4196,PAYLOAD,2023-06-19 16:17:37,15.08837373,0.0001024,53.2153,166.4082,83.5616,276.5493,2.3718e-05,9e-07,0.0,0 STARLINK-4196,1 52859U 22062AF  23170.67891004  .00000090  00000-0  23718-4 0  9993,2 52859  53.2153 166.4082 0001024  83.5616 276.5493 15.08837373 55868,6917.888,95.438,540.462,539.045,0.0
52859.0,STARLINK-4196,PAYLOAD,2023-06-20 06:36:05,15.08837638,0.0001027,53.2153,163.7316,81.6349,278.476,9.081e-05,1.158e-05,0.0,0 STARLINK-4196,1 52859U 22062AF  23171.27506911  .00001158  00000-0  90810-4 0  9993,2 52859  53.2153 163.7316 0001027  81.6349 278.4760 15.08837638 55955,6917.888,95.438,540.463,539.042,0.0
52859.0,STARLINK-4196,PAYLOAD,2023-06-21 00:05:20,15.08835965,0.0001027,53.2151,160.4606,80.3323,279.7785,1.3561e-05,-7.2e-07,0.0,0 STARLINK-4196,1 52859U 22062AF  23172.00371450 -.00000072  00000-0  13561-4 0  9996,2 52859  53.2151 160.4606 0001027  80.3323 279.7785 15.08835965 56556,6917.893,95.438,540.468,539.047,0.0
52859.0,STARLINK-4196,PAYLOAD,2023-06-21 04:51:30,15.08837688,0.0001033,53.2152,159.5686,80.348,279.7629,2.6799e-05,1.39e-06,0.0,0 STARLINK-4196,1 52859U 22062AF  23172.20243346  .00000139  00000-0  26799-4 0  9990,2 52859  53.2152 159.5686 0001033  80.3480 279.7629 15.08837688 56095,6917.887,95.438,540.467,539.038,0.0
52859.0,STARLINK-4196,PAYLOAD,2023-06-21 15:59:12,15.08838186,0.0001043,53.2153,157.487,80.1983,279.9127,3.6697e-05,2.96e-06,0.0,0 STARLINK-4196,1 52859U 22062AF  23172.66611334  .00000296  00000-0  36697-4 0  9998,2 52859  53.2153 157.4870 0001043  80.1983 279.9127 15.08838186 56162,6917.886,95.438,540.472,539.029,0.0
52859.0,STARLINK-4196,PAYLOAD,2023-06-22 06:17:40,15.08840413,0.0001141,53.216,154.8119,87.2824,272.8298,3.4736e-05,2.65e-06,0.0,0 STARLINK-4196,1 52859U 22062AF  23173.26227279  .00000265  00000-0  34736-4 0  9994,2 52859  53.2160 154.8119 0001141  87.2824 272.8298 15.08840413 56749,6917.879,95.438,540.533,538.955,0.0
52859.0,STARLINK-4196,PAYLOAD,2023-06-23 07:43:50,15.0884443,0.0001149,53.2158,150.0535,91.8053,268.3071,9.7531e-05,1.265e-05,0.0,0 STARLINK-4196,1 52859U 22062AF  23174.32210864  .00001265  00000-0  97531-4 0  9997,2 52859  53.2158 150.0535 0001149  91.8053 268.3071 15.08844430 56909,6917.867,95.437,540.527,538.937,0.0
52859.0,STARLINK-4196,PAYLOAD,2023-06-23 15:40:46,15.08837736,0.0001113,53.2155,148.5639,89.7075,270.4045,3.1381e-05,2.12e-06,0.0,0 STARLINK-4196,1 52859U 22062AF  23174.65331453  .00000212  00000-0  31381-4 0  9993,2 52859  53.2155 148.5639 0001113  89.7075 270.4045 15.08837736 56955,6917.887,95.438,540.522,538.982,0.0
52859.0,STARLINK-4196,PAYLOAD,2023-06-25 04:14:38,15.08839915,0.0001189,53.2154,141.725,92.3428,267.77,4.5431e-05,4.35e-06,0.0,0 STARLINK-4196,1 52859U 22062AF  23176.17683544  .00000435  00000-0  45431-4 0  9991,2 52859  53.2154 141.7250 0001189  92.3428 267.7700 15.08839915 57187,6917.881,95.438,540.568,538.923,0.0
52859.0,STARLINK-4196,PAYLOAD,2023-06-26 07:16:11,15.08839761,0.0001429,53.216,136.669,101.9265,258.1887,0.00016006,2.26e-05,0.0,0 STARLINK-4196,1 52859U 22062AF  23177.30291227  .00002260  00000-0  16006-3 0  9993,2 52859  53.2160 136.6690 0001429 101.9265 258.1887 15.08839761 57356,6917.881,95.438,540.735,538.758,0.0
52859.0,STARLINK-4196,PAYLOAD,2023-06-27 02:20:50,15.08834053,0.0001245,53.2158,133.099,96.6727,263.4407,1.6588e-05,-2.4e-07,0.0,0 STARLINK-4196,1 52859U 22062AF  23178.09780196 -.00000024  00000-0  16588-4 0  9991,2 52859  53.2158 133.0990 0001245  96.6727 263.4407 15.08834053 57475,6917.899,95.438,540.625,538.902,0.0
52859.0,STARLINK-4196,PAYLOAD,2023-06-28 03:47:00,15.08840763,0.0001281,53.2167,128.3458,107.5613,252.5519,-5.7144e-06,-3.79e-06,0.0,0 STARLINK-4196,1 52859U 22062AF  23179.15764126 -.00000379  00000-0 -57144-5 0  9992,2 52859  53.2167 128.3458 0001281 107.5613 252.5519 15.08840763 57633,6917.878,95.438,540.629,538.857,0.0
52859.0,STARLINK-4196,PAYLOAD,2023-06-29 06:48:33,15.088411,0.0001169,53.2168,123.2908,98.0502,262.0623,0.00010237,1.342e-05,0.0,0 STARLINK-4196,1 52859U 22062AF  23180.28372172  .00001342  00000-0  10237-3 0  9993,2 52859  53.2168 123.2908 0001169  98.0502 262.0623 15.08841100 57801,6917.877,95.437,540.551,538.933,0.0
